"120347 Salacia:Salacia:2004 SB60" "Sol"
{
	Class	"asteroid"
	Texture	"asteroid.*"
	Color	[ 0.341 0.341 0.334 ]
	BlendTexture	true
	Radius	423
	OrbitFrame
	{
		EclipticJ2000	{ Center "SSB" }
	}
	EllipticalOrbit  # primary body solution
	{
		Epoch	2451545.0  # 2000 Jan 01 12:00
		Period	272.3000599109864
		SemiMajorAxis	42.02946003986086
		Eccentricity	0.1066677988940644
		Inclination	23.93114857174348
		AscendingNode	280.0947421579912
		ArgOfPericenter	309.7425117575299
		MeanAnomaly	98.83249713140768
	}
	BodyFrame	{ EquatorJ2000 {} }
	UniformRotation  # assume coplanarity with satellite orbit
	{
		Period	6.5
		Inclination	23.59
		AscendingNode	45.2
	}
	LunarLambert	0.5
	GeomAlbedo	0.042
	InfoURL	"https://en.wikipedia.org/wiki/120347_Salacia"
}

"Actaea:120347 Salacia I:Salacia I:S 2006 (120347) 1" "Sol/Salacia"
{
	Class	"moon"
	Mesh	"roughsphere.cms"
	Texture	"asteroid.*"
	Color	[ 0.346 0.34 0.335 ]
	BlendTexture	true
	Radius	142
	OrbitFrame	{ EquatorJ2000 {} }
	EllipticalOrbit
	{
		Epoch	2454300  # 2007 Jul 18 12:00 UT
		Period	5.49389
		SemiMajorAxis	5730
		Eccentricity	0.009
		Inclination	23.5
		MeanLongitude	303.8
		AscendingNode	45
		LongOfPericenter	130
	}
	BodyFrame	{ EquatorJ2000 {} }
	UniformRotation  # to match mutual orbit
	{
		Epoch	2454300  # 2007 Jul 18 12:00 UT
		Inclination	23.59
		AscendingNode	45.2
		MeridianAngle	78.56
	}
	LunarLambert	0.5
	GeomAlbedo	0.042  # assume same albedo as primary
	InfoURL	"https://en.wikipedia.org/wiki/Actaea_(moon)"
}

# Varda's shape from Souami et al. (2020), A&A 643, A125
# "A multi-chord stellar occultation by the large trans-Neptunian object (174567) Varda"
# https://ui.adsabs.harvard.edu/abs/2020A%26A...643A.125S/abstract
# Colors from Grundy et al. (2015), Icarus 257, p. 130-138
# "The mutual orbit, mass, and density of the large transneptunian binary system Varda and Ilmarë"
# https://ui.adsabs.harvard.edu/abs/2015Icar..257..130G/abstract
# Orbital solution from http://www2.lowell.edu/users/grundy/tnbs/orbits.html
# Retrieved on 2023-12-29.
ReferencePoint "Varda-Ilmarë" "Sol"
{
	OrbitFrame
	{
		EclipticJ2000	{ Center "SSB" }
	}
	EllipticalOrbit
	{
		Epoch	2451545.0  # 2000 Jan 01 12:00
		Period	309.2032393685073
		SemiMajorAxis	45.74581221342397
		Eccentricity	0.1426114200198719
		Inclination	21.51108837586643
		AscendingNode	184.0972851643154
		ArgOfPericenter	183.2090761116666
		MeanAnomaly	248.1810047624323
	}
	# Make the orbit and label visible
	Visible true
	Clickable true
}

"174567 Varda:Varda:2003 MW12" "Sol"
{
	Class	"asteroid"
	Texture	"asteroid.*"
	Color	[ 0.552 0.518 0.464 ]
	BlendTexture	true
	Radius	383  # equatorial
	Oblateness	0.066  # projected
	OrbitFrame
	{
		EquatorJ2000	{ Center "Sol/Varda-Ilmarë" }
	}
	EllipticalOrbit
	{
		Epoch	2455300.0  # 2010 Apr 13 12:00
		Period	5.75080
		SemiMajorAxis	400  # separation = 4800 km, assumed mass ratio = 1:10.98
		Eccentricity	0.019
		Inclination	100
		MeanLongitude	276
		AscendingNode	3
		LongOfPericenter	140
	}
	BodyFrame	{ EquatorJ2000 {} }
	UniformRotation
	{
		Period	5.91
		Inclination	89
		AscendingNode	358
	}
	LunarLambert	0.5
	GeomAlbedo	0.099
	InfoURL	"https://en.wikipedia.org/wiki/174567_Varda"
}

"Ilmarë:174567 Varda I:Varda I" "Sol/Varda"
{
	Class	"asteroid"
	Mesh	"roughsphere.cms"
	Texture	"asteroid.*"
	Color	[ 0.517 0.481 0.437 ]
	BlendTexture	true
	Radius	178
	OrbitFrame
	{
		EquatorJ2000	{ Center "Sol/Varda-Ilmarë" }
	}
	EllipticalOrbit
	{
		Epoch	2455300.0  # 2010 Apr 13 12:00
		Period	5.75080
		SemiMajorAxis	4400  # separation = 4800 km, assumed mass ratio = 1:10.98
		Eccentricity	0.019
		Inclination	100
		MeanLongitude	96
		AscendingNode	3
		LongOfPericenter	320
	}
	BodyFrame	{ EquatorJ2000 {} }
	UniformRotation  # to match mutual orbit
	{
		Epoch	2455300.0  # 2010 Apr 13 12:00
		Inclination	100
		AscendingNode	3
		MeridianAngle	273
	}
	LunarLambert	0.5
	GeomAlbedo	0.085
	InfoURL	"https://en.wikipedia.org/wiki/Ilmar%C3%AB_(moon)"
}

# Dias-Oliveira et al. (2017), AJ 154, 22
# "Study of the Plutino Object (208996) 2003 AZ84 from Stellar
# Occultations: Size, Shape, and Topographic Features"
# https://ui.adsabs.harvard.edu/abs/2017AJ....154...22D/abstract
"208996 Achlys:Achlys:2003 AZ84" "Sol"
{
	Class	"asteroid"
	Texture	"asteroid.*"
	Color	[ 0.516 0.51 0.48 ]
	BlendTexture	true
	SemiAxes	[ 470 383 245 ]  # hydrostatic equilibrium assumed
	Density	870  # 0.87 +/- 0.01 g cm-3
	OrbitFrame
	{
		EclipticJ2000	{ Center "SSB" }
	}
	EllipticalOrbit
	{
		Epoch	2451545.0  # 2000 Jan 01 12:00
		Period	247.7991843073797
		SemiMajorAxis	39.46891923380872
		Eccentricity	0.1790440875629972
		Inclination	13.56505527753243
		AscendingNode	252.0309374439046
		ArgOfPericenter	15.12394431970204
		MeanAnomaly	204.5459197138737
	}
	BodyFrame	{ EquatorJ2000 {} }
	UniformRotation
	{
		Epoch	2456977.24874  # 2014-11-15, 17:58:11 UT
		Period	6.7874  # Santos-Sanz et al. (2017), 2017A&A...604A..95S
		Inclination	91
		AscendingNode	350
		MeridianAngle	10
	}
	LunarLambert	0.5
	GeomAlbedo	0.094  # Ortiz et al. (2019), arXiv:1905.04335
	InfoURL	"https://en.wikipedia.org/wiki/208996_Achlys"
}

# Size from Ortiz et al. (2019), eprint arXiv:1905.04335
# "Stellar Occultations by Transneptunian objects: from Predictions to Observations
# and Prospects for the Future"
# https://arxiv.org/abs/1905.04335
# Orientation from Benedetti-Rossi et al. (2016), AJ 152 (6), 156
# "Results from the 2014 November 15th Multi-chord Stellar Occultation by the TNO (229762) 2007 UK126"
# https://ui.adsabs.harvard.edu/abs/2016AJ....152..156B/abstract
"229762 G!kun||'homdima:G!kun||'homdima:2007 UK126" "Sol"
{
	Class	"asteroid"
	Texture	"asteroid.*"
	Color	[ 0.654 0.616 0.58 ]
	BlendTexture	true
	SemiAxes	[ 339 339 305.7 ]
	OrbitFrame
	{
		EclipticJ2000	{ Center "SSB" }
	}
	EllipticalOrbit
	{
		Epoch	2451545.0  # 2000 Jan 01 12:00
		Period	628.9177436276161
		SemiMajorAxis	73.43750009514187
		Eccentricity	0.4887391826728011
		Inclination	23.35736855320554
		AscendingNode	131.17839454295
		ArgOfPericenter	346.4333576250627
		MeanAnomaly	333.5092645180115
	}
	BodyFrame	{ EquatorJ2000 {} }
	UniformRotation  # approximately coplanar with satellite
	{
		Period	11.05
		Inclination	54
		AscendingNode	109
	}
	LunarLambert	0.5
	GeomAlbedo	0.142
	InfoURL	"https://en.wikipedia.org/wiki/229762_G%C7%83k%C3%BAn%C7%81%CA%BCh%C3%B2md%C3%ADm%C3%A0"
}

# Orbit and radius ratio from Grundy et al. (2019), Icarus 334, p. 30-38
# "The mutual orbit, mass, and density of transneptunian binary Gǃkúnǁ'hòmdímà (229762 2007 UK126)"
# https://ui.adsabs.harvard.edu/abs/2019Icar..334...30G/abstract
